[{"OBJECT_NAME":"STARLINK-32208","OBJECT_ID":"2024-150R","EPOCH":"2026-03-09T22:26:08.066112","MEAN_MOTION":15.30171543,"ECCENTRICITY":0.00012618,"INCLINATION":53.1593,"RA_OF_ASC_NODE":306.2562,"ARG_OF_PERICENTER":101.6519,"MEAN_ANOMALY":258.4623,"EPHEMERIS_TYPE":0,"CLASSIFICATION_TYPE":"U","NORAD_CAT_ID":60598,"ELEMENT_SET_NO":999,"REV_AT_EPOCH":8807,"BSTAR":1.8879926e-5,"MEAN_MOTION_DOT":2.0e-6,"MEAN_MOTION_DDOT":0},{"OBJECT_NAME":"ARIANE 1 DEB","OBJECT_ID":"1985-056C","EPOCH":"2026-03-09T16:04:19.760160","MEAN_MOTION":3.23404517,"ECCENTRICITY":0.64626337,"INCLINATION":8.4174,"RA_OF_ASC_NODE":296.5513,"ARG_OF_PERICENTER":347.1205,"MEAN_ANOMALY":2.1881,"EPHEMERIS_TYPE":0,"CLASSIFICATION_TYPE":"U","NORAD_CAT_ID":17255,"ELEMENT_SET_NO":999,"REV_AT_EPOCH":34240,"BSTAR":0.0076434869,"MEAN_MOTION_DOT":3.012e-5,"MEAN_MOTION_DDOT":0}]
